start=new Date('2022-04-23T00:00:00.000Z').valueOf();
sats=[{"SEMIMAJOR_AXIS":"6898.307","TIME_SYSTEM":"UTC","MEAN_ANOMALY":"88.5265","REV_AT_EPOCH":"365","ELEMENT_SET_NO":"999","DECAY_DATE":null,"CENTER_NAME":"EARTH","EPOCH":"2022-04-22T14:00:01.000224","ECCENTRICITY":"0.00018590","LAUNCH_DATE":"2022-01-19","COUNTRY_CODE":"US","MEAN_MOTION_DDOT":"0.0000000000000","SITE":"AFETR","OBJECT_TYPE":"PAYLOAD","EPHEMERIS_TYPE":"0","ARG_OF_PERICENTER":"40.4290","CLASSIFICATION_TYPE":"U","TLE_LINE2":"2 51126  53.2176 180.8180 0001859  40.4290  88.5265 15.15266260  3651","GP_ID":"201826908","NORAD_CAT_ID":"51126","FILE":"3411458","REF_FRAME":"TEME","PERIAPSIS":"518.890","MEAN_MOTION_DOT":"-0.00721603","BSTAR":"-0.04069700000000","PERIOD":"95.033","TLE_LINE1":"1 51126U 22005Y   22112.58334491 -.00721603  00000-0 -40697-1 0  9997","INCLINATION":"53.2176","RCS_SIZE":"LARGE","OBJECT_ID":"2022-005Y","MEAN_ELEMENT_THEORY":"SGP4","RA_OF_ASC_NODE":"180.8180","APOAPSIS":"521.455","MEAN_MOTION":"15.15266260","OBJECT_NAME":"STARLINK-3386"},{"CLASSIFICATION_TYPE":"U","REF_FRAME":"TEME","FILE":"3411458","GP_ID":"201825657","TLE_LINE2":"2 51127  53.2176 180.8175 0001798  45.2253 101.7773 15.15393930  3657","NORAD_CAT_ID":"51127","MEAN_MOTION_DOT":"-0.00721179","PERIAPSIS":"518.545","BSTAR":"-0.04052400000000","TLE_LINE1":"1 51127U 22005Z   22112.58334491 -.00721179  00000-0 -40524-1 0  9995","PERIOD":"95.025","INCLINATION":"53.2176","RCS_SIZE":"LARGE","OBJECT_ID":"2022-005Z","OBJECT_NAME":"STARLINK-3370","APOAPSIS":"521.025","MEAN_MOTION":"15.15393930","RA_OF_ASC_NODE":"180.8175","MEAN_ELEMENT_THEORY":"SGP4","REV_AT_EPOCH":"365","MEAN_ANOMALY":"101.7773","TIME_SYSTEM":"UTC","SEMIMAJOR_AXIS":"6897.920","CENTER_NAME":"EARTH","DECAY_DATE":null,"ELEMENT_SET_NO":"999","EPOCH":"2022-04-22T14:00:01.000224","ECCENTRICITY":"0.00017980","COUNTRY_CODE":"US","MEAN_MOTION_DDOT":"0.0000000000000","LAUNCH_DATE":"2022-01-19","ARG_OF_PERICENTER":"45.2253","OBJECT_TYPE":"PAYLOAD","SITE":"AFETR","EPHEMERIS_TYPE":"0"},{"INCLINATION":"53.2174","RCS_SIZE":"LARGE","TLE_LINE1":"1 51128U 22005AA  22112.58334491 -.00720122  00000-0 -42514-1 0  9994","PERIOD":"95.134","MEAN_MOTION":"15.13648287","APOAPSIS":"526.483","OBJECT_NAME":"STARLINK-3400","MEAN_ELEMENT_THEORY":"SGP4","RA_OF_ASC_NODE":"180.8158","OBJECT_ID":"2022-005AA","REF_FRAME":"TEME","TLE_LINE2":"2 51128  53.2174 180.8158 0002022  36.1092 234.2339 15.13648287  3643","GP_ID":"201825907","NORAD_CAT_ID":"51128","FILE":"3411458","CLASSIFICATION_TYPE":"U","BSTAR":"-0.04251400000000","MEAN_MOTION_DOT":"-0.00720122","PERIAPSIS":"523.691","LAUNCH_DATE":"2022-01-19","COUNTRY_CODE":"US","MEAN_MOTION_DDOT":"0.0000000000000","SITE":"AFETR","OBJECT_TYPE":"PAYLOAD","EPHEMERIS_TYPE":"0","ARG_OF_PERICENTER":"36.1092","DECAY_DATE":null,"CENTER_NAME":"EARTH","ELEMENT_SET_NO":"999","MEAN_ANOMALY":"234.2339","REV_AT_EPOCH":"364","SEMIMAJOR_AXIS":"6903.222","TIME_SYSTEM":"UTC","ECCENTRICITY":"0.00020220","EPOCH":"2022-04-22T14:00:01.000224"},{"BSTAR":"-0.04680900000000","PERIAPSIS":"534.082","MEAN_MOTION_DOT":"-0.00720512","FILE":"3411458","GP_ID":"201826159","TLE_LINE2":"2 51129  53.2176 180.7532 0002050  36.8187 113.2971 15.10230176  3643","NORAD_CAT_ID":"51129","REF_FRAME":"TEME","CLASSIFICATION_TYPE":"U","RA_OF_ASC_NODE":"180.7532","MEAN_ELEMENT_THEORY":"SGP4","OBJECT_NAME":"STARLINK-3396","MEAN_MOTION":"15.10230176","APOAPSIS":"536.917","OBJECT_ID":"2022-005AB","RCS_SIZE":"LARGE","INCLINATION":"53.2176","PERIOD":"95.350","TLE_LINE1":"1 51129U 22005AB  22112.58334491 -.00720512  00000-0 -46809-1 0  9999","ECCENTRICITY":"0.00020500","EPOCH":"2022-04-22T14:00:01.000224","ELEMENT_SET_NO":"999","CENTER_NAME":"EARTH","DECAY_DATE":null,"TIME_SYSTEM":"UTC","SEMIMAJOR_AXIS":"6913.634","REV_AT_EPOCH":"364","MEAN_ANOMALY":"113.2971","ARG_OF_PERICENTER":"36.8187","SITE":"AFETR","OBJECT_TYPE":"PAYLOAD","EPHEMERIS_TYPE":"0","COUNTRY_CODE":"US","MEAN_MOTION_DDOT":"0.0000000000000","LAUNCH_DATE":"2022-01-19"},{"BSTAR":"-0.04292800000000","MEAN_MOTION_DOT":"-0.00719512","PERIAPSIS":"524.800","REF_FRAME":"TEME","FILE":"3411458","TLE_LINE2":"2 51130  53.2174 180.8141 0002071  37.4487 176.9775 15.13272425  3647","NORAD_CAT_ID":"51130","GP_ID":"201826409","CLASSIFICATION_TYPE":"U","OBJECT_NAME":"STARLINK-3395","APOAPSIS":"527.660","MEAN_MOTION":"15.13272425","RA_OF_ASC_NODE":"180.8141","MEAN_ELEMENT_THEORY":"SGP4","OBJECT_ID":"2022-005AC","RCS_SIZE":"LARGE","INCLINATION":"53.2174","TLE_LINE1":"1 51130U 22005AC  22112.58334491 -.00719512  00000-0 -42928-1 0  9997","PERIOD":"95.158","ECCENTRICITY":"0.00020710","EPOCH":"2022-04-22T14:00:01.000224","CENTER_NAME":"EARTH","DECAY_DATE":null,"ELEMENT_SET_NO":"999","REV_AT_EPOCH":"364","MEAN_ANOMALY":"176.9775","SEMIMAJOR_AXIS":"6904.365","TIME_SYSTEM":"UTC","ARG_OF_PERICENTER":"37.4487","SITE":"AFETR","EPHEMERIS_TYPE":"0","OBJECT_TYPE":"PAYLOAD","MEAN_MOTION_DDOT":"0.0000000000000","COUNTRY_CODE":"US","LAUNCH_DATE":"2022-01-19"},{"OBJECT_TYPE":"PAYLOAD","SITE":"AFETR","EPHEMERIS_TYPE":"0","ARG_OF_PERICENTER":"42.4942","LAUNCH_DATE":"2022-01-19","MEAN_MOTION_DDOT":"0.0000000000000","COUNTRY_CODE":"US","EPOCH":"2022-04-22T14:00:01.000224","ECCENTRICITY":"0.00018870","MEAN_ANOMALY":"209.2314","REV_AT_EPOCH":"364","TIME_SYSTEM":"UTC","SEMIMAJOR_AXIS":"6903.599","DECAY_DATE":null,"CENTER_NAME":"EARTH","ELEMENT_SET_NO":"999","OBJECT_ID":"2022-005AD","APOAPSIS":"526.767","MEAN_MOTION":"15.13524288","OBJECT_NAME":"STARLINK-3388","MEAN_ELEMENT_THEORY":"SGP4","RA_OF_ASC_NODE":"180.8154","TLE_LINE1":"1 51131U 22005AD  22112.58334491 -.00719758  00000-0 -42641-1 0  9992","PERIOD":"95.142","RCS_SIZE":"LARGE","INCLINATION":"53.2174","MEAN_MOTION_DOT":"-0.00719758","PERIAPSIS":"524.162","BSTAR":"-0.04264100000000","CLASSIFICATION_TYPE":"U","REF_FRAME":"TEME","GP_ID":"201825158","TLE_LINE2":"2 51131  53.2174 180.8154 0001887  42.4942 209.2314 15.13524288  3644","NORAD_CAT_ID":"51131","FILE":"3411458"},{"INCLINATION":"53.2174","RCS_SIZE":"LARGE","PERIOD":"95.150","TLE_LINE1":"1 51132U 22005AE  22112.58334491 -.00719796  00000-0 -42796-1 0  9996","MEAN_ELEMENT_THEORY":"SGP4","RA_OF_ASC_NODE":"180.8148","APOAPSIS":"527.320","MEAN_MOTION":"15.13396280","OBJECT_NAME":"STARLINK-3393","OBJECT_ID":"2022-005AE","NORAD_CAT_ID":"51132","TLE_LINE2":"2 51132  53.2174 180.8148 0002124  32.1582 200.9587 15.13396280  3648","GP_ID":"201825408","FILE":"3411458","REF_FRAME":"TEME","CLASSIFICATION_TYPE":"U","BSTAR":"-0.04279600000000","PERIAPSIS":"524.387","MEAN_MOTION_DOT":"-0.00719796","LAUNCH_DATE":"2022-01-19","COUNTRY_CODE":"US","MEAN_MOTION_DDOT":"0.0000000000000","OBJECT_TYPE":"PAYLOAD","SITE":"AFETR","EPHEMERIS_TYPE":"0","ARG_OF_PERICENTER":"32.1582","ELEMENT_SET_NO":"999","DECAY_DATE":null,"CENTER_NAME":"EARTH","SEMIMAJOR_AXIS":"6903.989","TIME_SYSTEM":"UTC","MEAN_ANOMALY":"200.9587","REV_AT_EPOCH":"364","ECCENTRICITY":"0.00021240","EPOCH":"2022-04-22T14:00:01.000224"},{"TLE_LINE1":"1 51133U 22005AF  22112.58334491 -.00720297  00000-0 -42375-1 0  9998","PERIOD":"95.126","INCLINATION":"53.2174","RCS_SIZE":"LARGE","OBJECT_ID":"2022-005AF","OBJECT_NAME":"STARLINK-3356","MEAN_MOTION":"15.13776265","APOAPSIS":"525.750","RA_OF_ASC_NODE":"180.8163","MEAN_ELEMENT_THEORY":"SGP4","CLASSIFICATION_TYPE":"U","REF_FRAME":"TEME","FILE":"3411458","GP_ID":"201826659","TLE_LINE2":"2 51133  53.2174 180.8163 0001524  58.8393 230.0370 15.13776265  3643","NORAD_CAT_ID":"51133","MEAN_MOTION_DOT":"-0.00720297","PERIAPSIS":"523.646","BSTAR":"-0.04237500000000","COUNTRY_CODE":"US","MEAN_MOTION_DDOT":"0.0000000000000","LAUNCH_DATE":"2022-01-19","ARG_OF_PERICENTER":"58.8393","SITE":"AFETR","EPHEMERIS_TYPE":"0","OBJECT_TYPE":"PAYLOAD","REV_AT_EPOCH":"364","MEAN_ANOMALY":"230.0370","TIME_SYSTEM":"UTC","SEMIMAJOR_AXIS":"6902.833","CENTER_NAME":"EARTH","DECAY_DATE":null,"ELEMENT_SET_NO":"999","EPOCH":"2022-04-22T14:00:01.000224","ECCENTRICITY":"0.00015240"},{"OBJECT_ID":"2022-005AG","RA_OF_ASC_NODE":"175.0026","MEAN_ELEMENT_THEORY":"SGP4","OBJECT_NAME":"STARLINK-3183","MEAN_MOTION":"15.41829931","APOAPSIS":"441.857","PERIOD":"93.396","TLE_LINE1":"1 51134U 22005AG  22112.58334491 -.00420231  00000-0 -10299-1 0  9994","INCLINATION":"53.2175","RCS_SIZE":"LARGE","PERIAPSIS":"439.564","MEAN_MOTION_DOT":"-0.00420231","BSTAR":"-0.01029900000000","CLASSIFICATION_TYPE":"U","FILE":"3411458","NORAD_CAT_ID":"51134","TLE_LINE2":"2 51134  53.2175 175.0026 0001681  36.8956  18.5482 15.41829931  3681","GP_ID":"201826909","REF_FRAME":"TEME","ARG_OF_PERICENTER":"36.8956","SITE":"AFETR","EPHEMERIS_TYPE":"0","OBJECT_TYPE":"PAYLOAD","MEAN_MOTION_DDOT":"0.0000000000000","COUNTRY_CODE":"US","LAUNCH_DATE":"2022-01-19","EPOCH":"2022-04-22T14:00:01.000224","ECCENTRICITY":"0.00016810","SEMIMAJOR_AXIS":"6818.846","TIME_SYSTEM":"UTC","REV_AT_EPOCH":"368","MEAN_ANOMALY":"18.5482","ELEMENT_SET_NO":"999","CENTER_NAME":"EARTH","DECAY_DATE":null},{"DECAY_DATE":null,"CENTER_NAME":"EARTH","ELEMENT_SET_NO":"999","MEAN_ANOMALY":"271.6676","REV_AT_EPOCH":"364","TIME_SYSTEM":"UTC","SEMIMAJOR_AXIS":"6902.443","ECCENTRICITY":"0.00019620","EPOCH":"2022-04-22T14:00:01.000224","LAUNCH_DATE":"2022-01-19","MEAN_MOTION_DDOT":"0.0000000000000","COUNTRY_CODE":"US","OBJECT_TYPE":"PAYLOAD","SITE":"AFETR","EPHEMERIS_TYPE":"0","ARG_OF_PERICENTER":"35.7034","REF_FRAME":"TEME","NORAD_CAT_ID":"51135","TLE_LINE2":"2 51135  53.2174 180.8167 0001962  35.7034 271.6676 15.13904517  3644","GP_ID":"201825658","FILE":"3411458","CLASSIFICATION_TYPE":"U","BSTAR":"-0.04226100000000","MEAN_MOTION_DOT":"-0.00720971","PERIAPSIS":"522.954","RCS_SIZE":"LARGE","INCLINATION":"53.2174","TLE_LINE1":"1 51135U 22005AH  22112.58334491 -.00720971  00000-0 -42261-1 0  9993","PERIOD":"95.118","APOAPSIS":"525.663","MEAN_MOTION":"15.13904517","OBJECT_NAME":"STARLINK-3363","MEAN_ELEMENT_THEORY":"SGP4","RA_OF_ASC_NODE":"180.8167","OBJECT_ID":"2022-005AH"}];
